{"type": "FeatureCollection", "features": [ {"type": "Feature", "properties": {"norad_id": 34303, "name": "COSMOS 2251 DEB", "group": "cosmos-2251-debris", "lat": 35.99472152661553, "lon": -70.46022466425889, "alt_km": 616.1067755550248, "timestamp": "2025-12-18T07:01:54.983453+00:00", "meta": {"OBJECT_NAME": "COSMOS 2251 DEB", "OBJECT_ID": "1993-036MZ", "EPOCH": "2025-12-17T21:13:52.968576", "MEAN_MOTION": 14.54519269, "ECCENTRICITY": 0.01352651, "INCLINATION": 74.0058, "RA_OF_ASC_NODE": 278.2879, "ARG_OF_PERICENTER": 55.3393, "MEAN_ANOMALY": 5.4841, "EPHEMERIS_TYPE": 0, "CLASSIFICATION_TYPE": "U", "NORAD_CAT_ID": 34303, "ELEMENT_SET_NO": 999, "REV_AT_EPOCH": 88037, "BSTAR": 0.0011410414, "MEAN_MOTION_DOT": 5.47e-05, "MEAN_MOTION_DDOT": 0}, "tle": {"line1": "1 34303U 93036MZ  25351.88464084  .00005470  00000+0  11410-2 0  9996", "line2": "2 34303  74.0058 278.2879 0135265  55.3393   5.4841 14.54519269880376"}}, "geometry": {"type": "Point", "coordinates": [-70.46022466425889, 35.99472152661553]}}, {"type": "Feature", "properties": {"norad_id": 34304, "name": "COSMOS 2251 DEB", "group": "cosmos-2251-debris", "lat": 3.104483549931985, "lon": -68.53938006529657, "alt_km": 738.5727484285044, "timestamp": "2025-12-18T07:01:54.983463+00:00", "meta": {"OBJECT_NAME": "COSMOS 2251 DEB", "OBJECT_ID": "1993-036NA", "EPOCH": "2025-12-17T19:13:37.455744", "MEAN_MOTION": 14.37907185, "ECCENTRICITY": 0.01289769, "INCLINATION": 74.0131, "RA_OF_ASC_NODE": 113.2585, "ARG_OF_PERICENTER": 250.0158, "MEAN_ANOMALY": 262.9189, "EPHEMERIS_TYPE": 0, "CLASSIFICATION_TYPE": "U", "NORAD_CAT_ID": 34304, "ELEMENT_SET_NO": 999, "REV_AT_EPOCH": 87369, "BSTAR": 0.0011979785, "MEAN_MOTION_DOT": 3.955e-05, "MEAN_MOTION_DDOT": 0}, "tle": {"line1": "1 34304U 93036NA  25351.80112796  .00003955  00000+0  11980-2 0  9997", "line2": "2 34304  74.0131 113.2585 0128976 250.0158 262.9189 14.37907185873696"}}, "geometry": {"type": "Point", "coordinates": [-68.53938006529657, 3.104483549931985]}}, {"type": "Feature", "properties": {"norad_id": 34307, "name": "COSMOS 2251 DEB", "group": "cosmos-2251-debris", "lat": 23.306997818301927, "lon": 117.12942266370138, "alt_km": 783.1524139055336, "timestamp": "2025-12-18T07:01:54.983473+00:00", "meta": {"OBJECT_NAME": "COSMOS 2251 DEB", "OBJECT_ID": "1993-036ND", "EPOCH": "2025-12-17T07:58:06.173760", "MEAN_MOTION": 13.54327375, "ECCENTRICITY": 0.03919151, "INCLINATION": 74.0535, "RA_OF_ASC_NODE": 305.7461, "ARG_OF_PERICENTER": 135.6743, "MEAN_ANOMALY": 14.7195, "EPHEMERIS_TYPE": 0, "CLASSIFICATION_TYPE": "U", "NORAD_CAT_ID": 34307, "ELEMENT_SET_NO": 999, "REV_AT_EPOCH": 82924, "BSTAR": 0.00057277697, "MEAN_MOTION_DOT": 6.18e-06, "MEAN_MOTION_DDOT": 0}, "tle": {"line1": "1 34307U 93036ND  25351.33201590  .00000618  00000+0  57278-3 0  9993", "line2": "2 34307  74.0535 305.7461 0391915 135.6743  14.7195 13.54327375829248"}}, "geometry": {"type": "Point", "coordinates": [117.12942266370138, 23.306997818301927]}}, {"type": "Feature", "properties": {"norad_id": 34313, "name": "COSMOS 2251 DEB", "group": "cosmos-2251-debris", "lat": 2.1789710162457276, "lon": -65.55949216003712, "alt_km": 505.3655089666636, "timestamp": "2025-12-18T07:01:54.983483+00:00", "meta": {"OBJECT_NAME": "COSMOS 2251 DEB", "OBJECT_ID": "1993-036NK", "EPOCH": "2025-12-17T19:57:52.222752", "MEAN_MOTION": 15.19953262, "ECCENTRICITY": 0.00115802, "INCLINATION": 73.9723, "RA_OF_ASC_NODE": 294.7837, "ARG_OF_PERICENTER": 72.7548, "MEAN_ANOMALY": 287.4915, "EPHEMERIS_TYPE": 0, "CLASSIFICATION_TYPE": "U", "NORAD_CAT_ID": 34313, "ELEMENT_SET_NO": 999, "REV_AT_EPOCH": 89142, "BSTAR": 0.0034128881, "MEAN_MOTION_DOT": 0.00074282, "MEAN_MOTION_DDOT": 0}, "tle": {"line1": "1 34313U 93036NK  25351.83185443  .00074282  00000+0  34129-2 0  9990", "line2": "2 34313  73.9723 294.7837 0011580  72.7548 287.4915 15.19953262891428"}}, "geometry": {"type": "Point", "coordinates": [-65.55949216003712, 2.1789710162457276]}}, {"type": "Feature", "properties": {"norad_id": 34314, "name": "COSMOS 2251 DEB", "group": "cosmos-2251-debris", "lat": 33.73225139439218, "lon": 107.4316335750208, "alt_km": 845.9754972009587, "timestamp": "2025-12-18T07:01:54.983494+00:00", "meta": {"OBJECT_NAME": "COSMOS 2251 DEB", "OBJECT_ID": "1993-036NL", "EPOCH": "2025-12-17T22:09:09.697824", "MEAN_MOTION": 14.17435755, "ECCENTRICITY": 0.01030738, "INCLINATION": 74.0056, "RA_OF_ASC_NODE": 299.1331, "ARG_OF_PERICENTER": 43.584, "MEAN_ANOMALY": 12.7608, "EPHEMERIS_TYPE": 0, "CLASSIFICATION_TYPE": "U", "NORAD_CAT_ID": 34314, "ELEMENT_SET_NO": 999, "REV_AT_EPOCH": 86731, "BSTAR": 0.00052617233, "MEAN_MOTION_DOT": 1.099e-05, "MEAN_MOTION_DDOT": 0}, "tle": {"line1": "1 34314U 93036NL  25351.92302891  .00001099  00000+0  52617-3 0  9998", "line2": "2 34314  74.0056 299.1331 0103073  43.5840  12.7608 14.17435755867316"}}, "geometry": {"type": "Point", "coordinates": [107.4316335750208, 33.73225139439218]}}, {"type": "Feature", "properties": {"norad_id": 34316, "name": "COSMOS 2251 DEB", "group": "cosmos-2251-debris", "lat": 21.582893732735695, "lon": -27.746228518475323, "alt_km": 585.7704936173923, "timestamp": "2025-12-18T07:01:54.983504+00:00", "meta": {"OBJECT_NAME": "COSMOS 2251 DEB", "OBJECT_ID": "1993-036NN", "EPOCH": "2025-12-17T05:10:59.074464", "MEAN_MOTION": 14.91965634, "ECCENTRICITY": 0.00086452, "INCLINATION": 74.0644, "RA_OF_ASC_NODE": 327.9209, "ARG_OF_PERICENTER": 50.4091, "MEAN_ANOMALY": 309.7854, "EPHEMERIS_TYPE": 0, "CLASSIFICATION_TYPE": "U", "NORAD_CAT_ID": 34316, "ELEMENT_SET_NO": 999, "REV_AT_EPOCH": 89276, "BSTAR": 0.001336076, "MEAN_MOTION_DOT": 0.00013533, "MEAN_MOTION_DDOT": 0}, "tle": {"line1": "1 34316U 93036NN  25351.21596151  .00013533  00000+0  13361-2 0  9994", "line2": "2 34316  74.0644 327.9209 0008645  50.4091 309.7854 14.91965634892764"}}, "geometry": {"type": "Point", "coordinates": [-27.746228518475323, 21.582893732735695]}}, {"type": "Feature", "properties": {"norad_id": 34317, "name": "COSMOS 2251 DEB", "group": "cosmos-2251-debris", "lat": 56.50379161691887, "lon": -179.2139486381806, "alt_km": 1067.6016220518686, "timestamp": "2025-12-18T07:01:54.983514+00:00", "meta": {"OBJECT_NAME": "COSMOS 2251 DEB", "OBJECT_ID": "1993-036NP", "EPOCH": "2025-12-17T20:48:41.545728", "MEAN_MOTION": 13.6512719, "ECCENTRICITY": 0.03366971, "INCLINATION": 73.9245, "RA_OF_ASC_NODE": 27.3171, "ARG_OF_PERICENTER": 15.5839, "MEAN_ANOMALY": 168.358, "EPHEMERIS_TYPE": 0, "CLASSIFICATION_TYPE": "U", "NORAD_CAT_ID": 34317, "ELEMENT_SET_NO": 999, "REV_AT_EPOCH": 83689, "BSTAR": 0.00042735994, "MEAN_MOTION_DOT": 4.88e-06, "MEAN_MOTION_DDOT": 0}, "tle": {"line1": "1 34317U 93036NP  25351.86714752  .00000488  00000+0  42736-3 0  9999", "line2": "2 34317  73.9245  27.3171 0336697  15.5839 168.3580 13.65127190836896"}}, "geometry": {"type": "Point", "coordinates": [-179.2139486381806, 56.50379161691887]}}, {"type": "Feature", "properties": {"norad_id": 34321, "name": "COSMOS 2251 DEB", "group": "cosmos-2251-debris", "lat": 52.86119509579474, "lon": 168.1484221764812, "alt_km": 728.8741518162515, "timestamp": "2025-12-18T07:01:54.983524+00:00", "meta": {"OBJECT_NAME": "COSMOS 2251 DEB", "OBJECT_ID": "1993-036NT", "EPOCH": "2025-12-17T21:24:20.903040", "MEAN_MOTION": 14.50077783, "ECCENTRICITY": 0.00159324, "INCLINATION": 74.0276, "RA_OF_ASC_NODE": 146.6813, "ARG_OF_PERICENTER": 275.9499, "MEAN_ANOMALY": 207.0691, "EPHEMERIS_TYPE": 0, "CLASSIFICATION_TYPE": "U", "NORAD_CAT_ID": 34321, "ELEMENT_SET_NO": 999, "REV_AT_EPOCH": 88561, "BSTAR": 0.00046250348, "MEAN_MOTION_DOT": 1.769e-05, "MEAN_MOTION_DDOT": 0}, "tle": {"line1": "1 34321U 93036NT  25351.89190860  .00001769  00000+0  46250-3 0  9993", "line2": "2 34321  74.0276 146.6813 0015932 275.9499 207.0691 14.50077783885610"}}, "geometry": {"type": "Point", "coordinates": [168.1484221764812, 52.86119509579474]}}, {"type": "Feature", "properties": {"norad_id": 34323, "name": "COSMOS 2251 DEB", "group": "cosmos-2251-debris", "lat": -19.679119635397104, "lon": -61.87700166748161, "alt_km": 622.3508088964591, "timestamp": "2025-12-18T07:01:54.983535+00:00", "meta": {"OBJECT_NAME": "COSMOS 2251 DEB", "OBJECT_ID": "1993-036NV", "EPOCH": "2025-12-17T19:18:44.714016", "MEAN_MOTION": 14.7458924, "ECCENTRICITY": 0.00583711, "INCLINATION": 73.9529, "RA_OF_ASC_NODE": 113.1727, "ARG_OF_PERICENTER": 156.0162, "MEAN_ANOMALY": 332.7493, "EPHEMERIS_TYPE": 0, "CLASSIFICATION_TYPE": "U", "NORAD_CAT_ID": 34323, "ELEMENT_SET_NO": 999, "REV_AT_EPOCH": 88514, "BSTAR": 0.0017862883, "MEAN_MOTION_DOT": 0.00012223, "MEAN_MOTION_DDOT": 0}, "tle": {"line1": "1 34323U 93036NV  25351.80468419  .00012223  00000+0  17863-2 0  9998", "line2": "2 34323  73.9529 113.1727 0058371 156.0162 332.7493 14.74589240885140"}}, "geometry": {"type": "Point", "coordinates": [-61.87700166748161, -19.679119635397104]}}, {"type": "Feature", "properties": {"norad_id": 34325, "name": "COSMOS 2251 DEB", "group": "cosmos-2251-debris", "lat": 73.41166062977526, "lon": -73.24523894219138, "alt_km": 905.3624337072706, "timestamp": "2025-12-18T07:01:54.983545+00:00", "meta": {"OBJECT_NAME": "COSMOS 2251 DEB", "OBJECT_ID": "1993-036NX", "EPOCH": "2025-12-17T15:33:09.959616", "MEAN_MOTION": 14.04502088, "ECCENTRICITY": 0.01918728, "INCLINATION": 73.8704, "RA_OF_ASC_NODE": 184.1588, "ARG_OF_PERICENTER": 200.5513, "MEAN_ANOMALY": 235.6303, "EPHEMERIS_TYPE": 0, "CLASSIFICATION_TYPE": "U", "NORAD_CAT_ID": 34325, "ELEMENT_SET_NO": 999, "REV_AT_EPOCH": 85584, "BSTAR": 0.0014140715, "MEAN_MOTION_DOT": 2.634e-05, "MEAN_MOTION_DDOT": 0}, "tle": {"line1": "1 34325U 93036NX  25351.64803194  .00002634  00000+0  14141-2 0  9996", "line2": "2 34325  73.8704 184.1588 0191872 200.5513 235.6303 14.04502088855841"}}, "geometry": {"type": "Point", "coordinates": [-73.24523894219138, 73.41166062977526]}}]}